ONEWEB-0674             
1 55833U 23029AP  25099.23308326  .00000104  00000+0  24487-3 0  9994
2 55833  87.9095  16.0334 0002358  75.5466 284.5925 13.14501450103083
ONEWEB-0675             
1 55834U 23029AQ  25098.85281801 -.00000228  00000+0 -60295-3 0  9996
2 55834  87.9252  31.3186 0001570  82.5080 277.6231 13.19724347101638
ONEWEB-0720             
1 55835U 23029AR  25098.84493612  .00000129  00000+0  29058-3 0  9991
2 55835  87.9255  31.3172 0001991  66.3083 293.8258 13.19725881101551
ONEWEB-0537             
1 56046U 23043A   25098.87196705  .00000072  00000+0  15471-3 0  9999
2 56046  87.9042 315.3375 0001567  91.6484 268.4827 13.16594550101818
ONEWEB-0538             
1 56047U 23043B   25098.56165217 -.00000012  00000+0 -65556-4 0  9996
2 56047  87.9041 315.4215 0001443  81.3985 278.7309 13.16594139101785
ONEWEB-0546             
1 56048U 23043C   25098.85296361  .00000950  00000+0  24508-2 0  9993
2 56048  87.9047 315.3320 0001622 110.4227 249.7078 13.16602703101812
ONEWEB-0547             
1 56049U 23043D   25099.20625730  .00000133  00000+0  29111-3 0  9999
2 56049  87.9288 330.5239 0001589  77.1765 282.9546 13.21825709101803
ONEWEB-0548             
1 56050U 23043E   25099.10629656  .00000003  00000+0 -26002-4 0  9995
2 56050  87.9041 315.3224 0002276  84.3131 275.8259 13.16594994102758
